MALLIGYONG-1            
1 58400U 23179A   24025.91722754  .00008257  00000+0  36223-3 0  9999
2 58400  97.4242 274.8397 0017276  52.7830 307.4979 15.22086415  9939
